[{"OBJECT_NAME":"ZORKIY-2M-5","OBJECT_ID":"2025-313AZ","EPOCH":"2026-03-09T22:42:26.981568","MEAN_MOTION":15.22674372,"ECCENTRICITY":0.00099299,"INCLINATION":97.4004,"RA_OF_ASC_NODE":145.3305,"ARG_OF_PERICENTER":342.384,"MEAN_ANOMALY":17.7051,"EPHEMERIS_TYPE":0,"CLASSIFICATION_TYPE":"U","NORAD_CAT_ID":67295,"ELEMENT_SET_NO":999,"REV_AT_EPOCH":1086,"BSTAR":0.00041596363,"MEAN_MOTION_DOT":9.635e-5,"MEAN_MOTION_DDOT":0},{"OBJECT_NAME":"CZ-3B R\/B","OBJECT_ID":"2023-036B","EPOCH":"2026-03-08T16:34:15.785472","MEAN_MOTION":6.30546329,"ECCENTRICITY":0.47026213,"INCLINATION":28.1211,"RA_OF_ASC_NODE":180.2955,"ARG_OF_PERICENTER":110.8601,"MEAN_ANOMALY":304.6014,"EPHEMERIS_TYPE":0,"CLASSIFICATION_TYPE":"U","NORAD_CAT_ID":55913,"ELEMENT_SET_NO":999,"REV_AT_EPOCH":4290,"BSTAR":0.0012243535,"MEAN_MOTION_DOT":0.00154703,"MEAN_MOTION_DDOT":-1.06479e-7}]
